[{"OBJECT_NAME":"LEMUR-2-DEMBITZ","OBJECT_ID":"2017-042T","EPOCH":"2026-03-09T11:23:53.232288","MEAN_MOTION":15.26947128,"ECCENTRICITY":0.00069617,"INCLINATION":97.3807,"RA_OF_ASC_NODE":250.9241,"ARG_OF_PERICENTER":17.1421,"MEAN_ANOMALY":343.0051,"EPHEMERIS_TYPE":0,"CLASSIFICATION_TYPE":"U","NORAD_CAT_ID":42842,"ELEMENT_SET_NO":999,"REV_AT_EPOCH":47311,"BSTAR":0.00076560825,"MEAN_MOTION_DOT":0.00020231,"MEAN_MOTION_DDOT":0},{"OBJECT_NAME":"STARLINK-30511","OBJECT_ID":"2023-151Q","EPOCH":"2026-03-09T22:00:01.999584","MEAN_MOTION":15.26755123,"ECCENTRICITY":0.00014061,"INCLINATION":42.9997,"RA_OF_ASC_NODE":349.2941,"ARG_OF_PERICENTER":258.9465,"MEAN_ANOMALY":307.5616,"EPHEMERIS_TYPE":0,"CLASSIFICATION_TYPE":"U","NORAD_CAT_ID":57978,"ELEMENT_SET_NO":999,"REV_AT_EPOCH":577,"BSTAR":-0.00023891008,"MEAN_MOTION_DOT":-6.665e-5,"MEAN_MOTION_DDOT":0}]
